[{"OBJECT_NAME":"STARLINK-2363","OBJECT_ID":"2021-021AV","EPOCH":"2026-03-10T00:00:02.999808","MEAN_MOTION":15.64981779,"ECCENTRICITY":0.00011599,"INCLINATION":53.1594,"RA_OF_ASC_NODE":250.7661,"ARG_OF_PERICENTER":51.6723,"MEAN_ANOMALY":183.7852,"EPHEMERIS_TYPE":0,"CLASSIFICATION_TYPE":"U","NORAD_CAT_ID":47903,"ELEMENT_SET_NO":999,"REV_AT_EPOCH":582,"BSTAR":0.00044293637,"MEAN_MOTION_DOT":0.00043966,"MEAN_MOTION_DDOT":0},{"OBJECT_NAME":"PSLV R\/B","OBJECT_ID":"2022-013D","EPOCH":"2026-03-09T16:30:06.230304","MEAN_MOTION":15.6423675,"ECCENTRICITY":0.00125272,"INCLINATION":97.4518,"RA_OF_ASC_NODE":121.4885,"ARG_OF_PERICENTER":118.9618,"MEAN_ANOMALY":241.2898,"EPHEMERIS_TYPE":0,"CLASSIFICATION_TYPE":"U","NORAD_CAT_ID":51659,"ELEMENT_SET_NO":999,"REV_AT_EPOCH":22709,"BSTAR":0.00053235424,"MEAN_MOTION_DOT":0.00050953,"MEAN_MOTION_DDOT":0}]
